[{"OBJECT_NAME":"GAOFEN-9 05","OBJECT_ID":"2020-058A","EPOCH":"2026-03-10T00:01:50.876256","MEAN_MOTION":15.30293976,"ECCENTRICITY":0.0010522,"INCLINATION":97.2228,"RA_OF_ASC_NODE":111.963,"ARG_OF_PERICENTER":91.0204,"MEAN_ANOMALY":269.2242,"EPHEMERIS_TYPE":0,"CLASSIFICATION_TYPE":"U","NORAD_CAT_ID":46232,"ELEMENT_SET_NO":999,"REV_AT_EPOCH":30843,"BSTAR":0.00025120304,"MEAN_MOTION_DOT":7.299e-5,"MEAN_MOTION_DDOT":0},{"OBJECT_NAME":"STARLINK-31345","OBJECT_ID":"2024-027L","EPOCH":"2026-03-09T23:13:52.767840","MEAN_MOTION":15.30186465,"ECCENTRICITY":0.00010508,"INCLINATION":53.161,"RA_OF_ASC_NODE":308.1399,"ARG_OF_PERICENTER":101.158,"MEAN_ANOMALY":258.9539,"EPHEMERIS_TYPE":0,"CLASSIFICATION_TYPE":"U","NORAD_CAT_ID":58941,"ELEMENT_SET_NO":999,"REV_AT_EPOCH":11737,"BSTAR":1.9177052e-5,"MEAN_MOTION_DOT":2.09e-6,"MEAN_MOTION_DDOT":0}]
